[{"OBJECT_NAME":"GJZ 04","OBJECT_ID":"2024-238D","EPOCH":"2026-03-09T23:01:45.855264","MEAN_MOTION":13.75183996,"ECCENTRICITY":0.00067152,"INCLINATION":59.9121,"RA_OF_ASC_NODE":211.3877,"ARG_OF_PERICENTER":262.5602,"MEAN_ANOMALY":97.4643,"EPHEMERIS_TYPE":0,"CLASSIFICATION_TYPE":"U","NORAD_CAT_ID":62293,"ELEMENT_SET_NO":999,"REV_AT_EPOCH":6226,"BSTAR":8.6972418e-5,"MEAN_MOTION_DOT":-3.5e-7,"MEAN_MOTION_DDOT":0},{"OBJECT_NAME":"SL-8 R\/B","OBJECT_ID":"1976-011B","EPOCH":"2026-03-09T18:02:49.159968","MEAN_MOTION":13.74084909,"ECCENTRICITY":0.00067303,"INCLINATION":82.9718,"RA_OF_ASC_NODE":144.2795,"ARG_OF_PERICENTER":64.8522,"MEAN_ANOMALY":56.6322,"EPHEMERIS_TYPE":0,"CLASSIFICATION_TYPE":"U","NORAD_CAT_ID":8646,"ELEMENT_SET_NO":999,"REV_AT_EPOCH":51106,"BSTAR":5.4367008e-5,"MEAN_MOTION_DOT":6.6e-7,"MEAN_MOTION_DDOT":0}]
